GLOBALSTAR M067         
1 32263U 07048A   25071.44020594 -.00000041  00000+0  41856-3 0  9990
2 32263  51.9743 319.0241 0001462 110.2598  60.8395 12.40667895797727
GLOBALSTAR M070         
1 32264U 07048B   25071.47887602 -.00000085  00000+0  10210-3 0  9993
2 32264  51.9752  63.1134 0000113  80.0196  87.9438 12.62313616802432
GLOBALSTAR M066         
1 32265U 07048C   25070.91605314 -.00000049  00000+0  37222-3 0  9992
2 32265  51.9652 307.1547 0001987  40.6216 333.2401 12.35251110803287
GLOBALSTAR M068         
1 32266U 07048D   25070.89941207 -.00000094  00000+0  56118-4 0  9990
2 32266  51.9867 238.8217 0000036 321.1338 203.8161 12.62816642805268
GLOBALSTAR M079         
1 37188U 10054A   25071.43684505 -.00000093  00000+0  59609-4 0  9992
2 37188  52.0032  74.3081 0000625  86.3136  78.2279 12.62271506664917
GLOBALSTAR M074         
1 37189U 10054B   25071.03531909 -.00000094  00000+0  52688-4 0  9999
2 37189  52.0010  74.8691 0000395 127.0718 250.8841 12.62267113664865
GLOBALSTAR M076         
1 37190U 10054C   25071.49019181 -.00000096  00000+0  41754-4 0  9998
2 37190  52.0024  73.6419 0000692 116.9662  52.0750 12.62278366664922
GLOBALSTAR M077         
1 37191U 10054D   25070.97446479 -.00000097  00000+0  35258-4 0  9998
2 37191  52.0092  32.0445 0000441  80.0117 321.7478 12.62271404664877
